[{"OBJECT_NAME":"STARLINK-1559","OBJECT_ID":"2020-055BC","EPOCH":"2026-03-09T05:36:23.522976","MEAN_MOTION":15.29461733,"ECCENTRICITY":0.0004229,"INCLINATION":53.0254,"RA_OF_ASC_NODE":76.0659,"ARG_OF_PERICENTER":33.971,"MEAN_ANOMALY":326.1559,"EPHEMERIS_TYPE":0,"CLASSIFICATION_TYPE":"U","NORAD_CAT_ID":46077,"ELEMENT_SET_NO":999,"REV_AT_EPOCH":30951,"BSTAR":0.0014778793,"MEAN_MOTION_DOT":0.00042685,"MEAN_MOTION_DDOT":0},{"OBJECT_NAME":"STARLINK-35442","OBJECT_ID":"2025-253A","EPOCH":"2026-03-09T10:44:02.698944","MEAN_MOTION":15.27611453,"ECCENTRICITY":0.0003579,"INCLINATION":43.0024,"RA_OF_ASC_NODE":214.2065,"ARG_OF_PERICENTER":294.1681,"MEAN_ANOMALY":65.8797,"EPHEMERIS_TYPE":0,"CLASSIFICATION_TYPE":"U","NORAD_CAT_ID":66319,"ELEMENT_SET_NO":999,"REV_AT_EPOCH":2020,"BSTAR":0.0015497697,"MEAN_MOTION_DOT":0.00042677,"MEAN_MOTION_DDOT":0}]
