STARLINK-1559           
1 46077U 20055BC  26068.23360559  .00042685  00000+0  14779-2 0  9995
2 46077  53.0254  76.0659 0004229  33.9710 326.1559 15.29461733309518
STARLINK-35442          
1 66319U 25253A   26068.44725346  .00042677  00000+0  15498-2 0  9993
2 66319  43.0024 214.2065 0003579 294.1681  65.8797 15.27611453 20206
